{"type": "FeatureCollection", "features": [ {"type": "Feature", "properties": {"norad_id": 66469, "name": "STARLINK-35451", "group": "last-30-days", "lat": 4.079006872603856, "lon": 121.79473931804918, "alt_km": 405.4033574389996, "timestamp": "2025-12-04T19:33:58.448370+00:00", "meta": {"OBJECT_NAME": "STARLINK-35451", "OBJECT_ID": "2025-262P", "EPOCH": "2025-12-04T08:00:01.999872", "MEAN_MOTION": 15.55860171, "ECCENTRICITY": 0.00011694, "INCLINATION": 42.9996, "RA_OF_ASC_NODE": 120.2426, "ARG_OF_PERICENTER": 270.7917, "MEAN_ANOMALY": 274.7913, "EPHEMERIS_TYPE": 0, "CLASSIFICATION_TYPE": "U", "NORAD_CAT_ID": 66469, "ELEMENT_SET_NO": 999, "REV_AT_EPOCH": 428, "BSTAR": -0.033977841, "MEAN_MOTION_DOT": -0.02142838, "MEAN_MOTION_DDOT": 0}, "tle": {"line1": "1 66469U 25262P   25338.33335648 -.02142838  00000+0 -33978-1 0  9994", "line2": "2 66469  42.9996 120.2426 0001169 270.7917 274.7913 15.55860171  4285"}}, "geometry": {"type": "Point", "coordinates": [121.79473931804918, 4.079006872603856]}}, {"type": "Feature", "properties": {"norad_id": 66470, "name": "STARLINK-35655", "group": "last-30-days", "lat": 1.4689007742733124, "lon": 118.99333627340765, "alt_km": 405.7194134264637, "timestamp": "2025-12-04T19:33:58.448379+00:00", "meta": {"OBJECT_NAME": "STARLINK-35655", "OBJECT_ID": "2025-262Q", "EPOCH": "2025-12-04T08:00:01.999872", "MEAN_MOTION": 15.5586015, "ECCENTRICITY": 0.00012287, "INCLINATION": 42.9994, "RA_OF_ASC_NODE": 120.2534, "ARG_OF_PERICENTER": 269.5952, "MEAN_ANOMALY": 272.1526, "EPHEMERIS_TYPE": 0, "CLASSIFICATION_TYPE": "U", "NORAD_CAT_ID": 66470, "ELEMENT_SET_NO": 999, "REV_AT_EPOCH": 428, "BSTAR": -0.033957503, "MEAN_MOTION_DOT": -0.02141739, "MEAN_MOTION_DDOT": 0}, "tle": {"line1": "1 66470U 25262Q   25338.33335648 -.02141739  00000+0 -33958-1 0  9993", "line2": "2 66470  42.9994 120.2534 0001228 269.5952 272.1526 15.55860150  4285"}}, "geometry": {"type": "Point", "coordinates": [118.99333627340765, 1.4689007742733124]}}, {"type": "Feature", "properties": {"norad_id": 66471, "name": "STARLINK-35569", "group": "last-30-days", "lat": 2.774802071538444, "lon": 120.39282151827027, "alt_km": 405.63977434480967, "timestamp": "2025-12-04T19:33:58.448388+00:00", "meta": {"OBJECT_NAME": "STARLINK-35569", "OBJECT_ID": "2025-262R", "EPOCH": "2025-12-04T08:00:01.999872", "MEAN_MOTION": 15.55858988, "ECCENTRICITY": 0.00011858, "INCLINATION": 42.9993, "RA_OF_ASC_NODE": 120.2483, "ARG_OF_PERICENTER": 266.7814, "MEAN_ANOMALY": 276.8861, "EPHEMERIS_TYPE": 0, "CLASSIFICATION_TYPE": "U", "NORAD_CAT_ID": 66471, "ELEMENT_SET_NO": 999, "REV_AT_EPOCH": 428, "BSTAR": -0.033966241, "MEAN_MOTION_DOT": -0.02142117, "MEAN_MOTION_DDOT": 0}, "tle": {"line1": "1 66471U 25262R   25338.33335648 -.02142117  00000+0 -33966-1 0  9994", "line2": "2 66471  42.9993 120.2483 0001185 266.7814 276.8861 15.55858988  4285"}}, "geometry": {"type": "Point", "coordinates": [120.39282151827027, 2.774802071538444]}}, {"type": "Feature", "properties": {"norad_id": 66472, "name": "STARLINK-35567", "group": "last-30-days", "lat": 5.381312110522532, "lon": 123.20351116932308, "alt_km": 405.32900162838087, "timestamp": "2025-12-04T19:33:58.448397+00:00", "meta": {"OBJECT_NAME": "STARLINK-35567", "OBJECT_ID": "2025-262S", "EPOCH": "2025-12-04T08:00:01.999872", "MEAN_MOTION": 15.55859633, "ECCENTRICITY": 0.00011942, "INCLINATION": 42.9993, "RA_OF_ASC_NODE": 120.2385, "ARG_OF_PERICENTER": 267.3449, "MEAN_ANOMALY": 280.1559, "EPHEMERIS_TYPE": 0, "CLASSIFICATION_TYPE": "U", "NORAD_CAT_ID": 66472, "ELEMENT_SET_NO": 999, "REV_AT_EPOCH": 428, "BSTAR": -0.033972883, "MEAN_MOTION_DOT": -0.0214254, "MEAN_MOTION_DDOT": 0}, "tle": {"line1": "1 66472U 25262S   25338.33335648 -.02142540  00000+0 -33973-1 0  9993", "line2": "2 66472  42.9993 120.2385 0001194 267.3449 280.1559 15.55859633  4288"}}, "geometry": {"type": "Point", "coordinates": [123.20351116932308, 5.381312110522532]}}, {"type": "Feature", "properties": {"norad_id": 66473, "name": "STARLINK-35568", "group": "last-30-days", "lat": 6.680621141353252, "lon": 124.61767765116103, "alt_km": 405.18931557998803, "timestamp": "2025-12-04T19:33:58.448407+00:00", "meta": {"OBJECT_NAME": "STARLINK-35568", "OBJECT_ID": "2025-262T", "EPOCH": "2025-12-04T08:00:01.999872", "MEAN_MOTION": 15.55859261, "ECCENTRICITY": 0.00011835, "INCLINATION": 42.9994, "RA_OF_ASC_NODE": 120.2335, "ARG_OF_PERICENTER": 266.4053, "MEAN_ANOMALY": 283.0122, "EPHEMERIS_TYPE": 0, "CLASSIFICATION_TYPE": "U", "NORAD_CAT_ID": 66473, "ELEMENT_SET_NO": 999, "REV_AT_EPOCH": 428, "BSTAR": -0.033940096, "MEAN_MOTION_DOT": -0.02140672, "MEAN_MOTION_DDOT": 0}, "tle": {"line1": "1 66473U 25262T   25338.33335648 -.02140672  00000+0 -33940-1 0  9992", "line2": "2 66473  42.9994 120.2335 0001183 266.4053 283.0122 15.55859261  4289"}}, "geometry": {"type": "Point", "coordinates": [124.61767765116103, 6.680621141353252]}}, {"type": "Feature", "properties": {"norad_id": 66474, "name": "STARLINK-35620", "group": "last-30-days", "lat": 7.9750411586379535, "lon": 126.03832483490083, "alt_km": 405.08326703118837, "timestamp": "2025-12-04T19:33:58.448416+00:00", "meta": {"OBJECT_NAME": "STARLINK-35620", "OBJECT_ID": "2025-262U", "EPOCH": "2025-12-04T08:00:01.999872", "MEAN_MOTION": 15.55858089, "ECCENTRICITY": 0.00011344, "INCLINATION": 42.9994, "RA_OF_ASC_NODE": 120.2283, "ARG_OF_PERICENTER": 263.7846, "MEAN_ANOMALY": 287.5525, "EPHEMERIS_TYPE": 0, "CLASSIFICATION_TYPE": "U", "NORAD_CAT_ID": 66474, "ELEMENT_SET_NO": 999, "REV_AT_EPOCH": 428, "BSTAR": -0.033947044, "MEAN_MOTION_DOT": -0.02140944, "MEAN_MOTION_DDOT": 0}, "tle": {"line1": "1 66474U 25262U   25338.33335648 -.02140944  00000+0 -33947-1 0  9992", "line2": "2 66474  42.9994 120.2283 0001134 263.7846 287.5525 15.55858089  4281"}}, "geometry": {"type": "Point", "coordinates": [126.03832483490083, 7.9750411586379535]}}, {"type": "Feature", "properties": {"norad_id": 66475, "name": "STARLINK-35538", "group": "last-30-days", "lat": 9.265494225447133, "lon": 127.47031420274884, "alt_km": 404.94514929763136, "timestamp": "2025-12-04T19:33:58.448426+00:00", "meta": {"OBJECT_NAME": "STARLINK-35538", "OBJECT_ID": "2025-262V", "EPOCH": "2025-12-04T08:00:01.999872", "MEAN_MOTION": 15.55857149, "ECCENTRICITY": 0.0001157, "INCLINATION": 42.9992, "RA_OF_ASC_NODE": 120.2243, "ARG_OF_PERICENTER": 262.7419, "MEAN_ANOMALY": 290.512, "EPHEMERIS_TYPE": 0, "CLASSIFICATION_TYPE": "U", "NORAD_CAT_ID": 66475, "ELEMENT_SET_NO": 999, "REV_AT_EPOCH": 428, "BSTAR": -0.033903419, "MEAN_MOTION_DOT": -0.02138452, "MEAN_MOTION_DDOT": 0}, "tle": {"line1": "1 66475U 25262V   25338.33335648 -.02138452  00000+0 -33903-1 0  9996", "line2": "2 66475  42.9992 120.2243 0001157 262.7419 290.5120 15.55857149  4287"}}, "geometry": {"type": "Point", "coordinates": [127.47031420274884, 9.265494225447133]}}, {"type": "Feature", "properties": {"norad_id": 66476, "name": "STARLINK-35372", "group": "last-30-days", "lat": 10.549815529152832, "lon": 128.91095607023738, "alt_km": 404.85284275758295, "timestamp": "2025-12-04T19:33:58.448435+00:00", "meta": {"OBJECT_NAME": "STARLINK-35372", "OBJECT_ID": "2025-262W", "EPOCH": "2025-12-04T08:00:01.999872", "MEAN_MOTION": 15.55858095, "ECCENTRICITY": 0.00011925, "INCLINATION": 42.9996, "RA_OF_ASC_NODE": 120.219, "ARG_OF_PERICENTER": 259.9756, "MEAN_ANOMALY": 295.1951, "EPHEMERIS_TYPE": 0, "CLASSIFICATION_TYPE": "U", "NORAD_CAT_ID": 66476, "ELEMENT_SET_NO": 999, "REV_AT_EPOCH": 418, "BSTAR": -0.033924559, "MEAN_MOTION_DOT": -0.02139725, "MEAN_MOTION_DDOT": 0}, "tle": {"line1": "1 66476U 25262W   25338.33335648 -.02139725  00000+0 -33925-1 0  9995", "line2": "2 66476  42.9996 120.2190 0001192 259.9756 295.1951 15.55858095  4187"}}, "geometry": {"type": "Point", "coordinates": [128.91095607023738, 10.549815529152832]}}, {"type": "Feature", "properties": {"norad_id": 66477, "name": "STARLINK-35354", "group": "last-30-days", "lat": 13.097290767703937, "lon": 131.8301481184798, "alt_km": 404.4457713171887, "timestamp": "2025-12-04T19:33:58.448443+00:00", "meta": {"OBJECT_NAME": "STARLINK-35354", "OBJECT_ID": "2025-262X", "EPOCH": "2025-12-04T08:00:01.999872", "MEAN_MOTION": 15.55858019, "ECCENTRICITY": 0.00012112, "INCLINATION": 42.9996, "RA_OF_ASC_NODE": 120.2087, "ARG_OF_PERICENTER": 264.4162, "MEAN_ANOMALY": 294.5883, "EPHEMERIS_TYPE": 0, "CLASSIFICATION_TYPE": "U", "NORAD_CAT_ID": 66477, "ELEMENT_SET_NO": 999, "REV_AT_EPOCH": 428, "BSTAR": -0.033940059, "MEAN_MOTION_DOT": -0.021406, "MEAN_MOTION_DDOT": 0}, "tle": {"line1": "1 66477U 25262X   25338.33335648 -.02140600  00000+0 -33940-1 0  9997", "line2": "2 66477  42.9996 120.2087 0001211 264.4162 294.5883 15.55858019  4281"}}, "geometry": {"type": "Point", "coordinates": [131.8301481184798, 13.097290767703937]}}, {"type": "Feature", "properties": {"norad_id": 66478, "name": "STARLINK-35283", "group": "last-30-days", "lat": 14.359291714717108, "lon": 133.31224760380957, "alt_km": 404.41782950999004, "timestamp": "2025-12-04T19:33:58.448478+00:00", "meta": {"OBJECT_NAME": "STARLINK-35283", "OBJECT_ID": "2025-262Y", "EPOCH": "2025-12-04T08:00:01.999872", "MEAN_MOTION": 15.55857263, "ECCENTRICITY": 0.0001237, "INCLINATION": 42.9996, "RA_OF_ASC_NODE": 120.2035, "ARG_OF_PERICENTER": 258.0713, "MEAN_ANOMALY": 302.8507, "EPHEMERIS_TYPE": 0, "CLASSIFICATION_TYPE": "U", "NORAD_CAT_ID": 66478, "ELEMENT_SET_NO": 999, "REV_AT_EPOCH": 428, "BSTAR": -0.033906375, "MEAN_MOTION_DOT": -0.02138679, "MEAN_MOTION_DDOT": 0}, "tle": {"line1": "1 66478U 25262Y   25338.33335648 -.02138679  00000+0 -33906-1 0  9993", "line2": "2 66478  42.9996 120.2035 0001237 258.0713 302.8507 15.55857263  4280"}}, "geometry": {"type": "Point", "coordinates": [133.31224760380957, 14.359291714717108]}}]}